ONEWEB-0156             
1 48052U 21025L   24152.42549616  .00000090  00000+0  21117-3 0  9993
2 48052  87.8918 108.8551 0002006  81.4275 278.7082 13.13468909155543
ONEWEB-0161             
1 48053U 21025M   24152.85557902  .00000200  00000+0  51192-3 0  9997
2 48053  87.8920 108.7765 0002140  77.8747 282.2622 13.13468882155545
ONEWEB-0158             
1 48054U 21025N   24152.36042365 -.00000169  00000+0 -49687-3 0  9998
2 48054  87.8918 108.8661 0001973  87.6675 272.4680 13.13469021155597
ONEWEB-0157             
1 48055U 21025P   24152.38422769 -.00000077  00000+0 -24454-3 0  9994
2 48055  87.8917 108.8766 0001965  78.2896 281.8453 13.13469645155533
ONEWEB-0162             
1 48056U 21025Q   24152.42389886  .00000113  00000+0  27352-3 0  9991
2 48056  87.8913 108.8645 0001987  83.8030 276.3325 13.13467936155518
ONEWEB-0155             
1 48057U 21025R   24152.36835585 -.00000209  00000+0 -60718-3 0  9998
2 48057  87.8918 108.8861 0002105  84.6164 275.5206 13.13469444155643
ONEWEB-0149             
1 48058U 21025S   24152.38898754 -.00000006  00000+0 -50530-4 0  9995
2 48058  87.8914 108.8783 0001803  81.2731 278.8602 13.13469877155455
ONEWEB-0148             
1 48059U 21025T   24152.43025398 -.00000051  00000+0 -17368-3 0  9999
2 48059  87.8919 108.8791 0001503  70.1445 289.9846 13.13469087155586
ONEWEB-0160             
1 48060U 21025U   24152.36994253 -.00000233  00000+0 -67171-3 0  9997
2 48060  87.8918 108.8874 0002237 109.1644 250.9727 13.13469583155529
ONEWEB-0163             
1 48061U 21025V   24152.43183978 -.00000080  00000+0 -25314-3 0  9993
2 48061  87.8917 108.8679 0002077  75.3032 284.8327 13.13469348155654
ONEWEB-0159             
1 48062U 21025W   24152.42073591  .00000223  00000+0  57683-3 0  9993
2 48062  87.8914 108.8540 0001920  78.1592 281.9753 13.13469347155578
ONEWEB-0164             
1 48063U 21025X   24152.86033846  .00000296  00000+0  77610-3 0  9993
2 48063  87.8914 108.7765 0002168  84.8475 275.2902 13.13469098155627
ONEWEB-0167             
1 48064U 21025Y   24152.88970456 -.00000117  00000+0 -35498-3 0  9995
2 48064  87.8918 108.7823 0002062  77.0765 283.0594 13.13468648155608
ONEWEB-0166             
1 48065U 21025Z   24152.37787797 -.00000193  00000+0 -56369-3 0  9998
2 48065  87.8912 108.8680 0001856  80.7278 279.4061 13.13469456155612
ONEWEB-0151             
1 48066U 21025AA  24152.37945080 -.00000104  00000+0 -31848-3 0  9997
2 48066  87.8913 108.8807 0002197  85.7147 274.4234 13.13467507155559
ONEWEB-0170             
1 48067U 21025AB  24152.38740113  .00000082  00000+0  18955-3 0  9996
2 48067  87.8915 108.8814 0002558  93.7327 266.4094 13.13469443155512
ONEWEB-0168             
1 48068U 21025AC  24152.37311617 -.00000247  00000+0 -71001-3 0  9995
2 48068  87.8918 108.8535 0002053  81.7452 278.3910 13.13469234155520
ONEWEB-0173             
1 48069U 21025AD  24152.89842619 -.00000245  00000+0 -70647-3 0  9997
2 48069  87.8921 108.7590 0002372  73.1055 287.0334 13.13469267155830
ONEWEB-0171             
1 48070U 21025AE  24152.40168719  .00000428  00000+0  11357-2 0  9991
2 48070  87.8919 108.8935 0002168  82.7469 277.3906 13.13469266155589
ONEWEB-0172             
1 48071U 21025AF  24152.38105271 -.00000123  00000+0 -37151-3 0  9998
2 48071  87.8918 108.8641 0002227  80.1988 279.9392 13.13469404156477
ONEWEB-0174             
1 48072U 21025AG  24152.89683847 -.00000231  00000+0 -66777-3 0  9991
2 48072  87.8921 108.7757 0001908  80.6692 279.4653 13.13468511155866
ONEWEB-0175             
1 48073U 21025AH  24152.39215653 -.00000100  00000+0 -30864-3 0  9996
2 48073  87.8920 108.8654 0002366  90.6861 269.4539 13.13470419155458
ONEWEB-0177             
1 48074U 21025AJ  24152.40486066  .00000438  00000+0  11648-2 0  9997
2 48074  87.8912 108.8712 0002057  71.2111 288.9241 13.13468314155643
ONEWEB-0178             
1 48075U 21025AK  24152.87951529  .00000287  00000+0  75201-3 0  9998
2 48075  87.8923 108.7931 0002066  76.6620 283.4739 13.13467783155755
ONEWEB-0108             
1 48076U 21025AL  24152.38264088  .00000060  00000+0  12854-3 0  9996
2 48076  87.8911 108.8730 0001867  86.5520 273.5822 13.13469776155610
ONEWEB-0169             
1 48077U 21025AM  24152.41438020  .00000324  00000+0  85350-3 0  9994
2 48077  87.8915 108.8763 0001838  87.9903 272.1437 13.13468085154279
ONEWEB-0176             
1 48210U 21031A   24152.31128946  .00000045  00000+0  86629-4 0  9993
2 48210  87.8967  78.2966 0002043  79.3400 280.7960 13.14502214150193
ONEWEB-0184             
1 48211U 21031B   24152.36044532 -.00000233  00000+0 -66289-3 0  9997
2 48211  87.8964  78.2711 0003017  83.9844 276.1629 13.14502325150176
ONEWEB-0179             
1 48212U 21031C   24152.33031987  .00000110  00000+0  26264-3 0  9996
2 48212  87.8968  78.2795 0001994  76.3628 283.7723 13.14502284150219
ONEWEB-0180             
1 48213U 21031D   24152.36361881 -.00000173  00000+0 -49983-3 0  9993
2 48213  87.8966  78.2709 0002020  74.9128 285.2225 13.14502341150109
ONEWEB-0218             
1 48214U 21031E   24152.30971272 -.00000136  00000+0 -40212-3 0  9994
2 48214  87.8963  78.2838 0003095  75.8161 284.3312 13.14504383150251
ONEWEB-0209             
1 48215U 21031F   24152.29859864 -.00000397  00000+0 -11046-2 0  9996
2 48215  87.8978  78.3182 0002247  70.9338 289.2034 13.14502653150254
ONEWEB-0198             
1 48216U 21031G   24152.81556666 -.00000233  00000+0 -66168-3 0  9994
2 48216  87.8968  78.2211 0002372  72.6867 287.4522 13.14502429150412
ONEWEB-0189             
1 48217U 21031H   24152.29543057 -.00000081  00000+0 -25343-3 0  9998
2 48217  87.8965  78.3008 0002389  71.9836 288.1554 13.14501970150100
ONEWEB-0196             
1 48218U 21031J   24152.34934557 -.00000136  00000+0 -40087-3 0  9997
2 48218  87.8971  78.2931 0002094  80.7946 279.3420 13.14501893150114
ONEWEB-0183             
1 48219U 21031K   24152.55232231  .00000192  00000+0  48468-3 0  9992
2 48219  87.8968  78.2696 0001944  78.2155 281.9193 13.14501029150236
ONEWEB-0185             
1 48220U 21031L   24152.35013943 -.00000193  00000+0 -55395-3 0  9999
2 48220  87.8968  78.2821 0001919  74.6483 285.4859 13.14501757150139
ONEWEB-0187             
1 48221U 21031M   24152.32001513  .00000212  00000+0  53663-3 0  9993
2 48221  87.8967  78.3207 0001945  75.5246 284.6099 13.14502298150143
ONEWEB-0192             
1 48222U 21031N   24152.83299841 -.00000138  00000+0 -40653-3 0  9997
2 48222  87.8967  78.2156 0002123  77.1581 282.9786 13.14500726150132
ONEWEB-0219             
1 48223U 21031P   24152.35567795 -.00000208  00000+0 -59493-3 0  9991
2 48223  87.8968  78.2846 0002021  74.6740 285.4613 13.14501043150260
ONEWEB-0202             
1 48224U 21031Q   24152.33666273  .00000119  00000+0  28514-3 0  9990
2 48224  87.8968  78.3081 0002812  69.8458 290.2974 13.14501430150245
ONEWEB-0204             
1 48225U 21031R   24152.82745677 -.00000154  00000+0 -44912-3 0  9992
2 48225  87.8966  78.2226 0001600  81.5869 278.5442 13.14501999150211
ONEWEB-0205             
1 48226U 21031S   24152.80288285 -.00000046  00000+0 -15856-3 0  9993
2 48226  87.8968  78.1986 0002000  72.3678 287.7670 13.14501072150225
ONEWEB-0206             
1 48227U 21031T   24152.31922170  .00000164  00000+0  40889-3 0  9991
2 48227  87.8963  78.2849 0001915  72.9451 287.1889 13.14502088150100
ONEWEB-0182             
1 48228U 21031U   24152.31445809  .00000185  00000+0  46477-3 0  9993
2 48228  87.8969  78.3119 0001836  81.4490 278.6847 13.14501635150317
ONEWEB-0186             
1 48229U 21031V   24152.32556328  .00000148  00000+0  36564-3 0  9999
2 48229  87.8969  78.2738 0002054  78.4281 281.7080 13.14502046150266
ONEWEB-0181             
1 48230U 21031W   24152.30335846  .00000010  00000+0 -68633-5 0  9992
2 48230  87.8967  78.3479 0002183  77.5155 282.6218 13.14502220150113
ONEWEB-0188             
1 48231U 21031X   24152.79812411  .00000079  00000+0  17893-3 0  9998
2 48231  87.8969  78.2453 0001970  76.5328 283.6021 13.14502298150085
ONEWEB-0220             
1 48232U 21031Y   24152.30494342  .00000017  00000+0  12384-4 0  9998
2 48232  87.8960  78.3089 0001971  69.3759 290.7582 13.14502169150282
ONEWEB-0165             
1 48233U 21031Z   24152.86631004  .00000150  00000+0  36940-3 0  9999
2 48233  87.8968  78.2128 0002092  74.3623 285.7737 13.14501025150315
ONEWEB-0199             
1 48234U 21031AA  24152.31763087  .00000221  00000+0  56075-3 0  9997
2 48234  87.8968  78.2917 0001971  76.6750 283.4599 13.14501437150142
ONEWEB-0203             
1 48235U 21031AB  24152.30811234  .00000235  00000+0  59937-3 0  9990
2 48235  87.8965  78.2952 0002397  88.6388 271.5016 13.14502535150155
ONEWEB-0197             
1 48236U 21031AC  24152.35965029 -.00000247  00000+0 -69991-3 0  9994
2 48236  87.8969  78.2931 0001634  80.3972 279.7342 13.14501953150074
ONEWEB-0194             
1 48237U 21031AD  24152.33824687  .00000038  00000+0  68313-4 0  9991
2 48237  87.8970  78.2902 0002132  86.8449 273.2925 13.14502220150242
ONEWEB-0193             
1 48238U 21031AE  24152.81080602 -.00000113  00000+0 -33943-3 0  9992
2 48238  87.8971  78.2044 0002163  79.0548 281.0825 13.14501257150255
ONEWEB-0191             
1 48239U 21031AF  24152.28908288 -.00000170  00000+0 -49225-3 0  9996
2 48239  87.8964  78.2922 0002107  79.6572 280.4795 13.14502021150040
ONEWEB-0195             
1 48240U 21031AG  24152.79891403  .00000114  00000+0  27287-3 0  9994
2 48240  87.8967  78.1902 0002303  70.0502 290.0875 13.14501282150097
ONEWEB-0201             
1 48241U 21031AH  24152.86393008  .00000201  00000+0  50780-3 0  9992
2 48241  87.8970  78.2113 0002070  75.4426 284.6933 13.14500739150339
ONEWEB-0207             
1 48242U 21031AJ  24152.31049445  .00000179  00000+0  44706-3 0  9991
2 48242  87.8967  78.2876 0001802  75.7713 284.3616 13.14501680150179
